{"fetched_at":"2026-03-30T09:12:31Z","count":15922,"tles":[{"name":"STARLINK-3115","line1":"1 49447U 21104AR  26087.83043872  .00003851  00000+0  25971-3 0  9997","line2":"2 49447  53.2169 133.1954 0000987 105.2017 254.9085 15.08871879241668","category":"Starlink"}]}